#dV2023  1 22 10  0  0.00000000    1682       CTS   FIT  GFZ
## 2246  36000.00000000    30.00000000 59966 0.4166666666667
+    1   L64  0  0  0  0  0  0  0  0  0  0  0  0  0  0  0  0
+          0  0  0  0  0  0  0  0  0  0  0  0  0  0  0  0  0
+          0  0  0  0  0  0  0  0  0  0  0  0  0  0  0  0  0
+          0  0  0  0  0  0  0  0  0  0  0  0  0  0  0  0  0
+          0  0  0  0  0  0  0  0  0  0  0  0  0  0  0  0  0
++         0  0  0  0  0  0  0  0  0  0  0  0  0  0  0  0  0
++         0  0  0  0  0  0  0  0  0  0  0  0  0  0  0  0  0
++         0  0  0  0  0  0  0  0  0  0  0  0  0  0  0  0  0
++         0  0  0  0  0  0  0  0  0  0  0  0  0  0  0  0  0
++         0  0  0  0  0  0  0  0  0  0  0  0  0  0  0  0  0
%c L  cc GPS ccc cccc cccc cccc cccc ccccc ccccc ccccc ccccc
%c cc cc ccc ccc cccc cccc cccc cccc ccccc ccccc ccccc ccccc
%f  0.0000000  0.000000000  0.00000000000  0.000000000000000
%f  0.0000000  0.000000000  0.00000000000  0.000000000000000
%i    0    0    0    0      0      0      0      0         0
%i    0    0    0    0      0      0      0      0         0
/* CCCCCCCCCCCCCCCCCCCCCCCCCCCCCCCCCCCCCCCCCCCCCCCCCCCCCCCCCCCCCCCCCCCCCCCCCCCCC
/* C                             GFZ RSO-ORBIT                                 C
/* C DOI: https://doi.org/10.5880/GFZ_ORBIT/RSO/L64_G_v02                      C
/* C                                                                           C
/* C DORIS        RMS: not applicable                                          C
/* C GNSS-E Code  RMS: not applicable                                          C
/* C GNSS-E Phase RMS: not applicable                                          C
/* C GNSS-G Code  RMS:  51.508 [cm]   Obs.acc.:     14334 Obs.eli.:      1075  C
/* C GNSS-G Phase RMS:   4.346 [mm]   Obs.acc.:     14334 Obs.eli.:      1075  C
/* C SLR          RMS: not applicable                                          C
/* C                                                                           C
/* CCCCCCCCCCCCCCCCCCCCCCCCCCCCCCCCCCCCCCCCCCCCCCCCCCCCCCCCCCCCCCCCCCCCCCCCCCCCC
*  2023  1 22 23 10 30.00000000
PL64   1035.176583   5765.477962  -3584.850260  14980.428723
VL64  -4373.102788 -39600.881457 -64990.933757 999999.999999
*  2023  1 22 23 11  0.00000000
PL64   1021.224886   5643.550128  -3777.797589  14980.888424
VL64  -4928.672994 -41676.388045 -63628.773404 999999.999999
*  2023  1 22 23 11 30.00000000
PL64   1005.601091   5515.468493  -3966.552617  14981.348349
VL64  -5487.696630 -43703.037238 -62196.331978 999999.999999
*  2023  1 22 23 12  0.00000000
PL64    988.296086   5381.383000  -4150.906930  14981.808214
VL64  -6049.339750 -45678.592552 -60695.242172 999999.999999
*  2023  1 22 23 12 30.00000000
PL64    969.303278   5241.450206  -4330.657127  14982.268042
VL64  -6612.756785 -47600.881932 -59127.211456 999999.999999
*  2023  1 22 23 13  0.00000000
PL64    948.618627   5095.833082  -4505.605036  14982.727914
VL64  -7177.091615 -49467.800019 -57494.019573 999999.999999
*  2023  1 22 23 13 30.00000000
PL64    926.240676   4944.700816  -4675.557930  14983.187752
VL64  -7741.478573 -51277.310070 -55797.516138 999999.999999
*  2023  1 22 23 14  0.00000000
PL64    902.170577   4788.228598  -4840.328736  14983.647534
VL64  -8305.043781 -53027.445872 -54039.618546 999999.999999
*  2023  1 22 23 14 30.00000000
PL64    876.412115   4626.597411  -4999.736228  14984.107244
VL64  -8866.906696 -54716.313753 -52222.309616 999999.999999
*  2023  1 22 23 15  0.00000000
PL64    848.971725   4459.993806  -5153.605226  14984.566859
VL64  -9426.181487 -56342.094296 -50347.635095 999999.999999
*  2023  1 22 23 15 30.00000000
PL64    819.858504   4288.609679  -5301.766778  14985.026439
VL64  -9981.978266 -57903.043987 -48417.701453 999999.999999
*  2023  1 22 23 16  0.00000000
PL64    789.084226   4112.642041  -5444.058339  14985.486103
VL64 -10533.404425 -59397.496988 -46434.673768 999999.999999
*  2023  1 22 23 16 30.00000000
PL64    756.663342   3932.292782  -5580.323946  14985.945694
VL64 -11079.566156 -60823.867588 -44400.773513 999999.999999
*  2023  1 22 23 17  0.00000000
PL64    722.612987   3747.768424  -5710.414380  14986.405430
VL64 -11619.569816 -62180.652830 -42318.274560 999999.999999
*  2023  1 22 23 17 30.00000000
PL64    686.952974   3559.279873  -5834.187315  14986.865085
VL64 -12152.522671 -63466.432444 -40189.498737 999999.999999
*  2023  1 22 23 18  0.00000000
PL64    649.705793   3367.042176  -5951.507462  14987.324895
VL64 -12677.533636 -64679.868175 -38016.814710 999999.999999
*  2023  1 22 23 18 30.00000000
PL64    610.896602   3171.274265  -6062.246708  14987.784834
VL64 -13193.714780 -65819.706416 -35802.636864 999999.999999
*  2023  1 22 23 19  0.00000000
PL64    570.553217   2972.198704  -6166.284244  14988.244468
VL64 -13700.183257 -66884.780635 -33549.420764 999999.999999
*  2023  1 22 23 19 30.00000000
PL64    528.706092   2770.041428  -6263.506685  14988.703933
VL64 -14196.062723 -67874.010844 -31259.658695 999999.999999
*  2023  1 22 23 20  0.00000000
PL64    485.388299   2565.031481  -6353.808176  14989.163462
VL64 -14680.483999 -68786.402424 -28935.877597 999999.999999
*  2023  1 22 23 20 30.00000000
PL64    440.635508   2357.400764  -6437.090492  14989.622928
VL64 -15152.585883 -69621.046326 -26580.638445 999999.999999
*  2023  1 22 23 21  0.00000000
PL64    394.485956   2147.383775  -6513.263142  14990.082375
VL64 -15611.516410 -70377.121125 -24196.535340 999999.999999
*  2023  1 22 23 21 30.00000000
PL64    346.980422   1935.217340  -6582.243463  14990.542095
VL64 -16056.434568 -71053.895937 -21786.192422 999999.999999
*  2023  1 22 23 22  0.00000000
PL64    298.162190   1721.140342  -6643.956705  14991.001885
VL64 -16486.511940 -71650.731472 -19352.258541 999999.999999
*  2023  1 22 23 22 30.00000000
PL64    248.077007   1505.393443  -6698.336092  14991.462065
VL64 -16900.933574 -72167.078447 -16897.402619 999999.999999
*  2023  1 22 23 23  0.00000000
PL64    196.773045   1288.218824  -6745.322885  14991.922328
VL64 -17298.898915 -72602.475102 -14424.312008 999999.999999
*  2023  1 22 23 23 30.00000000
PL64    144.300854   1069.859920  -6784.866436  14992.382558
VL64 -17679.623562 -72956.547043 -11935.693695 999999.999999
*  2023  1 22 23 24  0.00000000
PL64     90.713311    850.561153  -6816.924244  14992.842803
VL64 -18042.341340 -73229.011448  -9434.272986 999999.999999
*  2023  1 22 23 24 30.00000000
PL64     36.065561    630.567651  -6841.462008  14993.302826
VL64 -18386.305556 -73419.679689  -6922.786485 999999.999999
*  2023  1 22 23 25  0.00000000
PL64    -19.585041    410.124970  -6858.453639  14993.762674
VL64 -18710.789337 -73528.455016  -4403.975981 999999.999999
*  2023  1 22 23 25 30.00000000
PL64    -76.178988    189.478824  -6867.881284  14994.222489
VL64 -19015.085950 -73555.329851  -1880.585783 999999.999999
*  2023  1 22 23 26  0.00000000
PL64   -133.654682    -31.125185  -6869.735320  14994.682261
VL64 -19298.508540 -73500.383807    644.638619 999999.999999
*  2023  1 22 23 26 30.00000000
PL64   -191.948497   -251.441821  -6864.014365  14995.142039
VL64 -19560.390481 -73363.782954   3168.949585 999999.999999
*  2023  1 22 23 27  0.00000000
PL64   -250.994840   -471.226480  -6850.725285  14995.602033
VL64 -19800.088758 -73145.782440   5689.597764 999999.999999
*  2023  1 22 23 27 30.00000000
PL64   -310.726229   -690.235459  -6829.883187  14996.061957
VL64 -20016.987028 -72846.728021   8203.837769 999999.999999
*  2023  1 22 23 28  0.00000000
PL64   -371.073372   -908.226225  -6801.511403  14996.521876
VL64 -20210.495656 -72467.053491  10708.933374 999999.999999
*  2023  1 22 23 28 30.00000000
PL64   -431.965249  -1124.957677  -6765.641458  14996.981654
VL64 -20380.051541 -72007.278366  13202.158850 999999.999999
*  2023  1 22 23 29  0.00000000
PL64   -493.329192  -1340.190397  -6722.313035  14997.441286
VL64 -20525.118929 -71468.007936  15680.799933 999999.999999
*  2023  1 22 23 29 30.00000000
PL64   -555.090966  -1553.686918  -6671.573943  14997.900884
VL64 -20645.190384 -70849.933850  18142.156102 999999.999999
*  2023  1 22 23 30  0.00000000
PL64   -617.174860  -1765.211972  -6613.480068  14998.360493
VL64 -20739.788233 -70153.834188  20583.543466 999999.999999
*  2023  1 22 23 30 30.00000000
PL64   -679.503774  -1974.532758  -6548.095316  14998.820098
VL64 -20808.466351 -69380.572840  23002.298207 999999.999999
*  2023  1 22 23 31  0.00000000
PL64   -741.999323  -2181.419193  -6475.491552  14999.280102
VL64 -20850.811162 -68531.098627  25395.780158 999999.999999
*  2023  1 22 23 31 30.00000000
PL64   -804.581926  -2385.644167  -6395.748521  14999.740256
VL64 -20866.441460 -67606.443670  27761.376741 999999.999999
*  2023  1 22 23 32  0.00000000
PL64   -867.170907  -2586.983785  -6308.953761  15000.200426
VL64 -20855.008070 -66607.720570  30096.505042 999999.999999
*  2023  1 22 23 32 30.00000000
PL64   -929.684594  -2785.217611  -6215.202513  15000.660479
VL64 -20816.195116 -65536.121452  32398.612219 999999.999999
*  2023  1 22 23 33  0.00000000
PL64   -992.040416  -2980.128907  -6114.597630  15001.120553
VL64 -20749.721778 -64392.918196  34665.178148 999999.999999
*  2023  1 22 23 33 30.00000000
PL64  -1054.155018  -3171.504864  -6007.249471  15001.581113
VL64 -20655.342940 -63179.461169  36893.719007 999999.999999
*  2023  1 22 23 34  0.00000000
PL64  -1115.944358  -3359.136844  -5893.275788  15002.041342
VL64 -20532.849614 -61897.177392  39081.789935 999999.999999
*  2023  1 22 23 34 30.00000000
PL64  -1177.323827  -3542.820601  -5772.801606  15002.501259
VL64 -20382.069591 -60547.568937  41226.987078 999999.999999
*  2023  1 22 23 35  0.00000000
PL64  -1238.208353  -3722.356507  -5645.959101  15002.960874
VL64 -20202.868104 -59132.212056  43326.949547 999999.999999
*  2023  1 22 23 35 30.00000000
PL64  -1298.512516  -3897.549773  -5512.887460  15003.420253
VL64 -19995.148504 -57652.756666  45379.362406 999999.999999
EOF
